KINEIS-5E               
1 62083U 24219C   26094.09964522  .00001008  00000+0  16701-3 0  9991
2 62083  97.9225 255.1412 0006420 111.8507 248.3384 14.72318270 72860
KINEIS-5A               
1 62084U 24219D   26095.83300661  .00001101  00000+0  18209-3 0  9992
2 62084  97.9474 257.0003 0005955 129.2114 230.9623 14.72258778 73122
KINEIS-5B               
1 62085U 24219E   26095.89160735  .00002041  00000+0  28884-3 0  9999
2 62085  97.9991 260.1810 0003085 126.3656 233.7839 14.78175000 73323
KINEIS-2C               
1 62929U 25028B   26095.57167344  .00001988  00000+0  32226-3 0  9997
2 62929  98.0277 150.4033 0001201 161.7346 198.3905 14.72314093 61928
KINEIS-2D               
1 62930U 25028C   26095.69723254  .00002634  00000+0  39461-3 0  9997
2 62930  97.9351 149.5275 0004711  85.9306 274.2442 14.75460612 62024
KINEIS-2E               
1 62931U 25028D   26095.73238638  .00002263  00000+0  32953-3 0  9997
2 62931  97.9021 148.8948 0001910  87.5491 272.5938 14.76816186 62088
KINEIS-2A               
1 62932U 25028E   26095.73944061  .00002028  00000+0  32964-3 0  9993
2 62932  98.0977 151.1097 0001135 115.2380 244.8945 14.72185422 61940
KINEIS-2B               
1 62934U 25028G   26095.74140860  .00002019  00000+0  32048-3 0  9994
2 62934  97.9731 149.9037 0004150  45.5492 314.6055 14.73206495 61994
KINEIS-4E               
1 63300U 25056A   26095.05596343  .00000478  00000+0  83377-4 0  9997
2 63300  97.9576 220.8768 0001253 121.5335 238.5995 14.72272693 56365
KINEIS-4C               
1 63301U 25056B   26095.88350752  .00000650  00000+0  11062-3 0  9994
2 63301  97.9612 221.8711 0002876 143.1504 216.9901 14.72303805 56497
KINEIS-4D               
1 63302U 25056C   26095.88823214  .00000102  00000+0  23791-4 0  9998
2 63302  97.9645 221.8530 0002425 156.3806 203.7513 14.72321566 56491
KINEIS-4A               
1 63303U 25056D   26095.78500571 -.00000056  00000+0 -11645-5 0  9992
2 63303  97.9629 221.6844 0002816 150.5551 209.5816 14.72343391 56475
KINEIS-4B               
1 63304U 25056E   26095.56449332  .00000437  00000+0  76793-4 0  9991
2 63304  97.9636 221.5111 0005317 130.2720 229.8953 14.72330700 56435
