[{"OBJECT_NAME":"KINEIS-5E","OBJECT_ID":"2024-219C","EPOCH":"2026-04-04T02:23:29.347008","MEAN_MOTION":14.7231827,"ECCENTRICITY":0.00064202,"INCLINATION":97.9225,"RA_OF_ASC_NODE":255.1412,"ARG_OF_PERICENTER":111.8507,"MEAN_ANOMALY":248.3384,"EPHEMERIS_TYPE":0,"CLASSIFICATION_TYPE":"U","NORAD_CAT_ID":62083,"ELEMENT_SET_NO":999,"REV_AT_EPOCH":7286,"BSTAR":0.00016700799,"MEAN_MOTION_DOT":1.008e-5,"MEAN_MOTION_DDOT":0},{"OBJECT_NAME":"KINEIS-5A","OBJECT_ID":"2024-219D","EPOCH":"2026-04-05T19:59:31.771104","MEAN_MOTION":14.72258778,"ECCENTRICITY":0.0005955,"INCLINATION":97.9474,"RA_OF_ASC_NODE":257.0003,"ARG_OF_PERICENTER":129.2114,"MEAN_ANOMALY":230.9623,"EPHEMERIS_TYPE":0,"CLASSIFICATION_TYPE":"U","NORAD_CAT_ID":62084,"ELEMENT_SET_NO":999,"REV_AT_EPOCH":7312,"BSTAR":0.00018209,"MEAN_MOTION_DOT":1.101e-5,"MEAN_MOTION_DDOT":0},{"OBJECT_NAME":"KINEIS-5B","OBJECT_ID":"2024-219E","EPOCH":"2026-04-05T21:23:54.875040","MEAN_MOTION":14.78175,"ECCENTRICITY":0.0003085,"INCLINATION":97.9991,"RA_OF_ASC_NODE":260.181,"ARG_OF_PERICENTER":126.3656,"MEAN_ANOMALY":233.7839,"EPHEMERIS_TYPE":0,"CLASSIFICATION_TYPE":"U","NORAD_CAT_ID":62085,"ELEMENT_SET_NO":999,"REV_AT_EPOCH":7332,"BSTAR":0.00028884,"MEAN_MOTION_DOT":2.041e-5,"MEAN_MOTION_DDOT":0},{"OBJECT_NAME":"KINEIS-2C","OBJECT_ID":"2025-028B","EPOCH":"2026-04-05T13:43:12.585216","MEAN_MOTION":14.72314093,"ECCENTRICITY":0.0001201,"INCLINATION":98.0277,"RA_OF_ASC_NODE":150.4033,"ARG_OF_PERICENTER":161.7346,"MEAN_ANOMALY":198.3905,"EPHEMERIS_TYPE":0,"CLASSIFICATION_TYPE":"U","NORAD_CAT_ID":62929,"ELEMENT_SET_NO":999,"REV_AT_EPOCH":6192,"BSTAR":0.00032226,"MEAN_MOTION_DOT":1.988e-5,"MEAN_MOTION_DDOT":0},{"OBJECT_NAME":"KINEIS-2D","OBJECT_ID":"2025-028C","EPOCH":"2026-04-05T16:44:00.891456","MEAN_MOTION":14.75460612,"ECCENTRICITY":0.0004711,"INCLINATION":97.9351,"RA_OF_ASC_NODE":149.5275,"ARG_OF_PERICENTER":85.9306,"MEAN_ANOMALY":274.2442,"EPHEMERIS_TYPE":0,"CLASSIFICATION_TYPE":"U","NORAD_CAT_ID":62930,"ELEMENT_SET_NO":999,"REV_AT_EPOCH":6202,"BSTAR":0.00039461,"MEAN_MOTION_DOT":2.634e-5,"MEAN_MOTION_DDOT":0},{"OBJECT_NAME":"KINEIS-2E","OBJECT_ID":"2025-028D","EPOCH":"2026-04-05T17:34:38.183232","MEAN_MOTION":14.76816186,"ECCENTRICITY":0.000191,"INCLINATION":97.9021,"RA_OF_ASC_NODE":148.8948,"ARG_OF_PERICENTER":87.5491,"MEAN_ANOMALY":272.5938,"EPHEMERIS_TYPE":0,"CLASSIFICATION_TYPE":"U","NORAD_CAT_ID":62931,"ELEMENT_SET_NO":999,"REV_AT_EPOCH":6208,"BSTAR":0.00032953,"MEAN_MOTION_DOT":2.263e-5,"MEAN_MOTION_DDOT":0},{"OBJECT_NAME":"KINEIS-2A","OBJECT_ID":"2025-028E","EPOCH":"2026-04-05T17:44:47.668704","MEAN_MOTION":14.72185422,"ECCENTRICITY":0.0001135,"INCLINATION":98.0977,"RA_OF_ASC_NODE":151.1097,"ARG_OF_PERICENTER":115.238,"MEAN_ANOMALY":244.8945,"EPHEMERIS_TYPE":0,"CLASSIFICATION_TYPE":"U","NORAD_CAT_ID":62932,"ELEMENT_SET_NO":999,"REV_AT_EPOCH":6194,"BSTAR":0.00032964,"MEAN_MOTION_DOT":2.028e-5,"MEAN_MOTION_DDOT":0},{"OBJECT_NAME":"KINEIS-2B","OBJECT_ID":"2025-028G","EPOCH":"2026-04-05T17:47:37.703040","MEAN_MOTION":14.73206495,"ECCENTRICITY":0.000415,"INCLINATION":97.9731,"RA_OF_ASC_NODE":149.9037,"ARG_OF_PERICENTER":45.5492,"MEAN_ANOMALY":314.6055,"EPHEMERIS_TYPE":0,"CLASSIFICATION_TYPE":"U","NORAD_CAT_ID":62934,"ELEMENT_SET_NO":999,"REV_AT_EPOCH":6199,"BSTAR":0.00032048,"MEAN_MOTION_DOT":2.019e-5,"MEAN_MOTION_DDOT":0},{"OBJECT_NAME":"KINEIS-4E","OBJECT_ID":"2025-056A","EPOCH":"2026-04-05T01:20:35.240352","MEAN_MOTION":14.72272693,"ECCENTRICITY":0.0001253,"INCLINATION":97.9576,"RA_OF_ASC_NODE":220.8768,"ARG_OF_PERICENTER":121.5335,"MEAN_ANOMALY":238.5995,"EPHEMERIS_TYPE":0,"CLASSIFICATION_TYPE":"U","NORAD_CAT_ID":63300,"ELEMENT_SET_NO":999,"REV_AT_EPOCH":5636,"BSTAR":8.3377278e-5,"MEAN_MOTION_DOT":4.78e-6,"MEAN_MOTION_DDOT":0},{"OBJECT_NAME":"KINEIS-4C","OBJECT_ID":"2025-056B","EPOCH":"2026-04-05T21:12:15.049728","MEAN_MOTION":14.72303805,"ECCENTRICITY":0.0002876,"INCLINATION":97.9612,"RA_OF_ASC_NODE":221.8711,"ARG_OF_PERICENTER":143.1504,"MEAN_ANOMALY":216.9901,"EPHEMERIS_TYPE":0,"CLASSIFICATION_TYPE":"U","NORAD_CAT_ID":63301,"ELEMENT_SET_NO":999,"REV_AT_EPOCH":5649,"BSTAR":0.00011062,"MEAN_MOTION_DOT":6.5e-6,"MEAN_MOTION_DDOT":0},{"OBJECT_NAME":"KINEIS-4D","OBJECT_ID":"2025-056C","EPOCH":"2026-04-05T21:19:03.256896","MEAN_MOTION":14.72321566,"ECCENTRICITY":0.0002425,"INCLINATION":97.9645,"RA_OF_ASC_NODE":221.853,"ARG_OF_PERICENTER":156.3806,"MEAN_ANOMALY":203.7513,"EPHEMERIS_TYPE":0,"CLASSIFICATION_TYPE":"U","NORAD_CAT_ID":63302,"ELEMENT_SET_NO":999,"REV_AT_EPOCH":5649,"BSTAR":2.3791e-5,"MEAN_MOTION_DOT":1.02e-6,"MEAN_MOTION_DDOT":0},{"OBJECT_NAME":"KINEIS-4A","OBJECT_ID":"2025-056D","EPOCH":"2026-04-05T18:50:24.493344","MEAN_MOTION":14.72343391,"ECCENTRICITY":0.0002816,"INCLINATION":97.9629,"RA_OF_ASC_NODE":221.6844,"ARG_OF_PERICENTER":150.5551,"MEAN_ANOMALY":209.5816,"EPHEMERIS_TYPE":0,"CLASSIFICATION_TYPE":"U","NORAD_CAT_ID":63303,"ELEMENT_SET_NO":999,"REV_AT_EPOCH":5647,"BSTAR":-1.1645e-6,"MEAN_MOTION_DOT":-5.6e-7,"MEAN_MOTION_DDOT":0},{"OBJECT_NAME":"KINEIS-4B","OBJECT_ID":"2025-056E","EPOCH":"2026-04-05T13:32:52.222848","MEAN_MOTION":14.723307,"ECCENTRICITY":0.0005317,"INCLINATION":97.9636,"RA_OF_ASC_NODE":221.5111,"ARG_OF_PERICENTER":130.272,"MEAN_ANOMALY":229.8953,"EPHEMERIS_TYPE":0,"CLASSIFICATION_TYPE":"U","NORAD_CAT_ID":63304,"ELEMENT_SET_NO":999,"REV_AT_EPOCH":5643,"BSTAR":7.6793e-5,"MEAN_MOTION_DOT":4.37e-6,"MEAN_MOTION_DDOT":0}]
